satname,norad_id,inclination_deg,eccentricity,mean_motion_rev_per_day,perigee_km,apogee_km,l1,l2
STARLINK-1327,45555,53.0553,0.0001204,15.06365436,546.4836689246749,548.1513183667439,1 45555U 20025AA  25285.58365606 -.00002385  00000+0 -14140-3 0  9996,2 45555  53.0553  31.4922 0001204  82.6749 277.4376 15.06365436303046
STARLINK-1336,45557,53.0365,0.000296,16.01486005,268.3348938970639,272.2707702776597,1 45557U 20025AC  25285.60264464  .00516420  12994-3  90767-3 0  9997,2 45557  53.0365 333.8710 0002960  40.2007 319.9241 16.01486005303854
STARLINK-1356,45564,53.0544,0.0001449,15.06403943,546.1959919825613,548.2029544925053,1 45564U 20025AK  25285.58731675  .00005462  00000+0  38522-3 0  9996,2 45564  53.0544  31.4736 0001449  93.0533 267.0621 15.06403943303041
STARLINK-1357,45565,53.0644,0.000503,15.29200543,474.75215513688,481.6496310573348,1 45565U 20025AL  25285.52063072  .00071956  00000+0  24929-2 0  9996,2 45565  53.0644  20.0250 0005030 246.3809 113.6663 15.29200543303203
STARLINK-1361,45567,53.0548,0.0001509,15.06384053,546.2153911549267,548.305476100395,1 45567U 20025AN  25285.47305749  .00000305  00000+0  39415-4 0  9990,2 45567  53.0548  31.9868 0001509  93.0725 267.0437 15.06384053303033
STARLINK-1363,45568,53.0539,0.0001186,15.07493166,543.0422371642771,544.6841356084869,1 45568U 20025AP  25285.55297818  .00138689  00000+0  88819-2 0  9994,2 45568  53.0539  31.8556 0001186 103.6143 256.4978 15.07493166303039
STARLINK-1366,45569,53.0547,0.0001373,15.10921362,532.4398497760794,534.3377547613818,1 45569U 20025AQ  25285.66668981  .00344738  00000+0  19499-1 0  9991,2 45569  53.0547  31.0537 0001373  74.1789 270.6078 15.10921362  5807
STARLINK-1376,45570,53.0545,0.000134,15.06395798,546.2964380605263,548.152434925506,1 45570U 20025AR  25285.60206036  .00001778  00000+0  13823-3 0  9997,2 45570  53.0545  31.4092 0001340  91.3405 268.7738 15.06395798303048
STARLINK-1320,45572,53.0581,0.000897,15.39568117,441.2629995982179,453.5079869511519,1 45572U 20025AT  25285.52116976  .00102720  00000+0  25448-2 0  9997,2 45572  53.0581 339.7311 0008970 294.6974  65.3096 15.39568117303785
STARLINK-1321,45573,53.0562,0.0001764,15.06386925,546.029992665437,548.4732697745312,1 45573U 20025AU  25285.52190365  .00004839  00000+0  34365-3 0  9993,2 45573  53.0562  21.7672 0001764  91.2033 268.9158 15.06386925302872
STARLINK-1328,45576,53.057,0.0008263,15.61645137,377.31791691411854,388.49121420536176,1 45576U 20025AX  25285.66668981  .00175407  00000+0  19606-2 0  9995,2 45576  53.0570   5.2568 0008263 322.6468 334.6010 15.61645137  5949
STARLINK-1331,45578,53.0547,0.0001294,15.06395427,546.3294316430829,548.1217154771202,1 45578U 20025AZ  25285.56613209  .00001469  00000+0  11750-3 0  9998,2 45578  53.0547  21.5706 0001294  95.6606 264.4531 15.06395427303197
STARLINK-1333,45580,53.056,0.0001659,15.0637418,546.1417651954753,548.4396221042289,1 45580U 20025BB  25285.57259699 -.00000959  00000+0 -45523-4 0  9992,2 45580  53.0560  31.5388 0001659 103.0574 257.0600 15.06374180303047
STARLINK-1335,45581,53.0586,0.0001628,15.06385553,546.1283823126569,548.3832902201457,1 45581U 20025BC  25285.51084340 -.00000332  00000+0 -33831-5 0  9991,2 45581  53.0586  21.8205 0001628  96.1690 263.9484 15.06385553303179
STARLINK-1337,45582,53.0535,0.0001236,15.06391379,546.3820038400845,548.0939565351873,1 45582U 20025BD  25285.46661120  .00000592  00000+0  58629-4 0  9990,2 45582  53.0535  22.0186 0001236  80.0098 280.1030 15.06391379303164
STARLINK-1347,45586,53.0581,0.0005025,15.28431528,477.0540333920799,483.94696407830907,1 45586U 20025BH  25285.50795123  .00059727  00000+0  21241-2 0  9992,2 45586  53.0581  10.4685 0005025 255.8697 104.1743 15.28431528303320
STARLINK-1360,45588,53.0468,0.000616,15.70900586,352.17347432421866,360.4703276902592,1 45588U 20025BK  25285.45721853  .00103489  00000+0  80667-3 0  9990,2 45588  53.0468 295.3061 0006160  48.8729 311.2819 15.70900586304389
STARLINK-1364,45589,53.0565,0.0001311,15.06400966,546.3006844811844,548.1165100967928,1 45589U 20025BL  25285.53663778  .00002560  00000+0  19070-3 0  9999,2 45589  53.0565  21.7057 0001311 100.5360 259.5777 15.06400966303173
STARLINK-1365,45590,53.0543,0.0001192,15.06386791,546.4265355428597,548.0775482904528,1 45590U 20025BM  25285.35326601  .00000645  00000+0  62187-4 0  9992,2 45590  53.0543  52.5227 0001192  94.8083 265.3042 15.06386791302747
STARLINK-1443,45660,53.0551,0.000122,15.06397382,546.3746882398655,548.0644752458093,1 45660U 20035D   25285.53755954  .00001713  00000+0  13390-3 0  9996,2 45660  53.0551  11.7014 0001220  84.9511 275.1618 15.06397382296404
STARLINK-1446,45663,53.0292,0.0002314,15.31256206,470.4781052130156,473.6483778848051,1 45663U 20035G   25285.41125361  .00055837  00000+0  18224-2 0  9995,2 45663  53.0292 338.7261 0002314 211.4139 148.6723 15.31256206296850
STARLINK-1448,45665,53.0553,0.0001742,15.06399844,546.0056402537693,548.418431857931,1 45665U 20035J   25285.54126171  .00019094  00000+0  12973-2 0  9991,2 45665  53.0553  11.6803 0001742  95.3093 264.8095 15.06399844296393
STARLINK-1451,45668,53.0559,0.000158,15.06394654,546.1337350458216,548.3221503677169,1 45668U 20035M   25285.47862305  .00001500  00000+0  11960-3 0  9991,2 45668  53.0559  12.2800 0001580  97.8036 262.3132 15.06394654296399
STARLINK-1452,45669,53.0387,0.0008381,15.24444529,486.69567052101775,498.21215500899416,1 45669U 20035N   25285.49335478  .00020898  00000+0  85102-3 0  9990,2 45669  53.0387 355.7360 0008381 305.4232  54.5981 15.24444529296623
STARLINK-1453,45670,53.054,0.0001384,15.06405098,546.2374672686137,548.154399424563,1 45670U 20035P   25285.55506961  .00006548  00000+0  45802-3 0  9995,2 45670  53.0540 341.6256 0001384  87.8100 272.3047 15.06405098296716
STARLINK-1454,45671,53.055,0.0001428,15.06383503,546.2731723344614,548.2510663229423,1 45671U 20035Q   25285.43436319  .00000223  00000+0  33879-4 0  9998,2 45671  53.0550  12.1623 0001428 101.0546 259.0604 15.06383503296377
STARLINK-1456,45673,53.0558,0.0001592,15.06399607,546.110246744759,548.3152781091158,1 45673U 20035S   25285.51544741  .00000619  00000+0  60461-4 0  9994,2 45673  53.0558  11.8014 0001592 115.2909 244.8245 15.06399607296408
STARLINK-1457,45674,53.0556,0.0001565,15.0640045,546.1263619199572,548.293995586906,1 45674U 20035T   25285.52281415  .00000432  00000+0  47919-4 0  9998,2 45674  53.0556  11.7650 0001565 103.2780 256.8384 15.06400450296378
STARLINK-1458,45675,53.0565,0.0001553,15.06381523,546.1926724352643,548.343703286615,1 45675U 20035U   25285.51177155  .00000802  00000+0  72794-4 0  9993,2 45675  53.0565  11.8133 0001553  90.8730 269.2437 15.06381523296364
STARLINK-1460,45676,53.0569,0.0001429,15.06383865,546.2713704552052,548.250649206414,1 45676U 20035V   25285.54862428 -.00001624  00000+0 -90227-4 0  9997,2 45676  53.0569  11.6511 0001429  91.3545 268.7608 15.06383865296364
STARLINK-1392,45677,53.0566,0.0001392,15.06386333,546.2894312915287,548.2174599915961,1 45677U 20035W   25285.62602155 -.00001188  00000+0 -60887-4 0  9990,2 45677  53.0566  11.3026 0001392  79.7493 280.3653 15.06386333296410
STARLINK-1394,45679,53.0532,0.0001389,15.06412501,546.2113188457552,548.1351700316609,1 45679U 20035Y   25285.49056548  .00005857  00000+0  41165-3 0  9998,2 45679  53.0532   1.9084 0001389  94.2433 265.8714 15.06412501296532
STARLINK-1402,45685,53.0561,0.000303,15.07263107,542.469942222483,546.6651011626291,1 45685U 20035AE  25285.52094065  .00079885  00000+0  51986-2 0  9998,2 45685  53.0561 356.1928 0003030  59.6416 300.4873 15.07263107296623
STARLINK-1404,45686,53.0549,0.0001445,15.06418516,546.1541049798461,548.1555143128344,1 45686U 20035AF  25285.45000067  .00007957  00000+0  55219-3 0  9995,2 45686  53.0549   2.0924 0001445  84.0536 276.0618 15.06418516296536
STARLINK-1413,45689,53.0556,0.0001231,15.06393849,546.377897203357,548.0829226596816,1 45689U 20035AJ  25285.46845305  .00007485  00000+0  52096-3 0  9997,2 45689  53.0556   2.0051 0001231  92.2234 267.8896 15.06393849296444
STARLINK-1417,45693,53.0553,0.0001342,15.06403751,546.2706814536978,548.1294419210535,1 45693U 20035AN  25285.59745576  .00002859  00000+0  21074-3 0  9997,2 45693  53.0553   1.4333 0001342  95.6174 264.4968 15.06403751296543
STARLINK-1420,45695,53.0553,0.0001368,15.06389959,546.2949404353858,548.1897242207106,1 45695U 20035AQ  25285.46566316  .00002363  00000+0  17750-3 0  9994,2 45695  53.0553 342.0148 0001368  97.3217 262.7928 15.06389959296818
STARLINK-1422,45696,53.0549,0.00014,15.06392086,546.2662611207788,548.2053655085065,1 45696U 20035AR  25285.60852290  .00000423  00000+0  47291-4 0  9999,2 45696  53.0549   1.3817 0001400  96.5219 263.5929 15.06392086296547
STARLINK-1351,45697,53.0552,0.0001402,15.06401324,546.2365667730301,548.1784333708501,1 45697U 20035AS  25285.45186731  .00000552  00000+0  55926-4 0  9990,2 45697  53.0552 342.0852 0001402  82.5385 277.5763 15.06401324296814
STARLINK-1398,45699,53.0516,0.0001399,15.45960035,427.60640247487026,429.510915920313,1 45699U 20035AU  25285.34592709  .00134723  00000+0  26829-2 0  9992,2 45699  53.0516 307.9422 0001399 305.0283  55.0591 15.45960035297286
STARLINK-1400,45700,53.0541,0.0001379,15.06407051,546.2349451370092,548.1449503091908,1 45700U 20035AV  25285.42605823  .00002573  00000+0  19152-3 0  9995,2 45700  53.0541 342.2023 0001379  96.6413 263.4733 15.06407051296803
STARLINK-1403,45701,53.0556,0.0001324,15.06405193,546.2787281451028,548.1125562287552,1 45701U 20035AW  25285.45555232 -.00003235  00000+0 -19837-3 0  9995,2 45701  53.0556 342.0697 0001324  96.4903 263.6237 15.06405193296803
STARLINK-1407,45703,53.0434,0.0010344,15.37207936,447.3026238235998,461.43771465532154,1 45703U 20035AY  25285.33434095  .00096270  00000+0  25773-2 0  9991,2 45703  53.0434 305.6986 0010344 332.3171  27.7279 15.37207936297318
